{
  "type": "FeatureCollection",
  "features": [
    {
      "type": "Feature",
      "properties": {
        "norad_id": 29268,
        "name": "ARIRANG-2 (KOMPSAT-2)",
        "group": "resource",
        "lat": -46.32572779748147,
        "lon": -163.94257533196816,
        "alt_km": 679.4401058300118,
        "timestamp": "2025-12-25T22:42:16.652927+00:00",
        "meta_object_name": "ARIRANG-2 (KOMPSAT-2)",
        "meta_object_id": "2006-031A",
        "meta_epoch": "2025-12-25T18:34:58.985184",
        "meta_mean_motion": 14.64505004,
        "meta_eccentricity": 0.001312,
        "meta_inclination": 97.8258,
        "meta_ra_of_asc_node": 187.6119,
        "meta_arg_of_pericenter": 264.15,
        "meta_mean_anomaly": 224.0653,
        "meta_ephemeris_type": 0,
        "meta_classification_type": "U",
        "meta_norad_cat_id": 29268,
        "meta_element_set_no": 999,
        "meta_rev_at_epoch": 3609,
        "meta_bstar": 9.4542e-05,
        "meta_mean_motion_dot": 4.56e-06,
        "meta_mean_motion_ddot": 0,
        "tle_line1": "1 29268U 06031A   25359.77429381  .00000456  00000+0  94542-4 0  9994",
        "tle_line2": "2 29268  97.8258 187.6119 0013120 264.1500 224.0653 14.64505004 36095"
      },
      "geometry": {
        "type": "Point",
        "coordinates": [
          -163.94257533196816,
          -46.32572779748147
        ]
      }
    },
    {
      "type": "Feature",
      "properties": {
        "norad_id": 29709,
        "name": "LAPAN-TUBSAT",
        "group": "resource",
        "lat": 6.149235848305461,
        "lon": 171.2563940964272,
        "alt_km": 620.5356268781588,
        "timestamp": "2025-12-25T22:42:16.652938+00:00",
        "meta_object_name": "LAPAN-TUBSAT",
        "meta_object_id": "2007-001A",
        "meta_epoch": "2025-12-25T18:41:36.382848",
        "meta_mean_motion": 14.85687307,
        "meta_eccentricity": 0.0013146,
        "meta_inclination": 98.1266,
        "meta_ra_of_asc_node": 350.2037,
        "meta_arg_of_pericenter": 35.3004,
        "meta_mean_anomaly": 324.9079,
        "meta_ephemeris_type": 0,
        "meta_classification_type": "U",
        "meta_norad_cat_id": 29709,
        "meta_element_set_no": 999,
        "meta_rev_at_epoch": 2540,
        "meta_bstar": 2.3357e-05,
        "meta_mean_motion_dot": 1.45e-06,
        "meta_mean_motion_ddot": 0,
        "tle_line1": "1 29709U 07001A   25359.77889332  .00000145  00000+0  23357-4 0  9999",
        "tle_line2": "2 29709  98.1266 350.2037 0013146  35.3004 324.9079 14.85687307 25405"
      },
      "geometry": {
        "type": "Point",
        "coordinates": [
          171.2563940964272,
          6.149235848305461
        ]
      }
    },
    {
      "type": "Feature",
      "properties": {
        "norad_id": 31113,
        "name": "HAIYANG-1B",
        "group": "resource",
        "lat": -18.561343472453842,
        "lon": -13.499655144692785,
        "alt_km": 784.2946911230811,
        "timestamp": "2025-12-25T22:42:16.652949+00:00",
        "meta_object_name": "HAIYANG-1B",
        "meta_object_id": "2007-010A",
        "meta_epoch": "2025-12-25T16:04:45.465024",
        "meta_mean_motion": 14.30969189,
        "meta_eccentricity": 0.0013567,
        "meta_inclination": 98.333,
        "meta_ra_of_asc_node": 343.4147,
        "meta_arg_of_pericenter": 0.9131,
        "meta_mean_anomaly": 359.2075,
        "meta_ephemeris_type": 0,
        "meta_classification_type": "U",
        "meta_norad_cat_id": 31113,
        "meta_element_set_no": 999,
        "meta_rev_at_epoch": 97581,
        "meta_bstar": 6.3277e-05,
        "meta_mean_motion_dot": 1.25e-06,
        "meta_mean_motion_ddot": 0,
        "tle_line1": "1 31113U 07010A   25359.66997066  .00000125  00000+0  63277-4 0  9996",
        "tle_line2": "2 31113  98.3330 343.4147 0013567   0.9131 359.2075 14.30969189975810"
      },
      "geometry": {
        "type": "Point",
        "coordinates": [
          -13.499655144692785,
          -18.561343472453842
        ]
      }
    },
    {
      "type": "Feature",
      "properties": {
        "norad_id": 31598,
        "name": "COSMO-SKYMED 1",
        "group": "resource",
        "lat": -69.04522087379503,
        "lon": -15.780657802316579,
        "alt_km": 587.8134573826728,
        "timestamp": "2025-12-25T22:42:16.652959+00:00",
        "meta_object_name": "COSMO-SKYMED 1",
        "meta_object_id": "2007-023A",
        "meta_epoch": "2025-12-25T16:46:19.064064",
        "meta_mean_motion": 14.9585976,
        "meta_eccentricity": 0.0001207,
        "meta_inclination": 97.8839,
        "meta_ra_of_asc_node": 185.1838,
        "meta_arg_of_pericenter": 77.2861,
        "meta_mean_anomaly": 282.8495,
        "meta_ephemeris_type": 0,
        "meta_classification_type": "U",
        "meta_norad_cat_id": 31598,
        "meta_element_set_no": 999,
        "meta_rev_at_epoch": 384,
        "meta_bstar": 0.0002959,
        "meta_mean_motion_dot": 3.248e-05,
        "meta_mean_motion_ddot": 0,
        "tle_line1": "1 31598U 07023A   25359.69883176  .00003248  00000+0  29590-3 0  9994",
        "tle_line2": "2 31598  97.8839 185.1838 0001207  77.2861 282.8495 14.95859760  3844"
      },
      "geometry": {
        "type": "Point",
        "coordinates": [
          -15.780657802316579,
          -69.04522087379503
        ]
      }
    },
    {
      "type": "Feature",
      "properties": {
        "norad_id": 31698,
        "name": "TERRASAR-X",
        "group": "resource",
        "lat": -65.24487202998672,
        "lon": 21.607319927807726,
        "alt_km": 516.6828828273046,
        "timestamp": "2025-12-25T22:42:16.652970+00:00",
        "meta_object_name": "TERRASAR-X",
        "meta_object_id": "2007-026A",
        "meta_epoch": "2025-12-25T13:30:40.378176",
        "meta_mean_motion": 15.19155603,
        "meta_eccentricity": 0.0001851,
        "meta_inclination": 97.4447,
        "meta_ra_of_asc_node": 4.756,
        "meta_arg_of_pericenter": 79.9289,
        "meta_mean_anomaly": 280.2154,
        "meta_ephemeris_type": 0,
        "meta_classification_type": "U",
        "meta_norad_cat_id": 31698,
        "meta_element_set_no": 999,
        "meta_rev_at_epoch": 2686,
        "meta_bstar": 7.0738e-05,
        "meta_mean_motion_dot": 1.419e-05,
        "meta_mean_motion_ddot": 0,
        "tle_line1": "1 31698U 07026A   25359.56296734  .00001419  00000+0  70738-4 0  9991",
        "tle_line2": "2 31698  97.4447   4.7560 0001851  79.9289 280.2154 15.19155603 26865"
      },
      "geometry": {
        "type": "Point",
        "coordinates": [
          21.607319927807726,
          -65.24487202998672
        ]
      }
    },
    {
      "type": "Feature",
      "properties": {
        "norad_id": 32060,
        "name": "WORLDVIEW-1 (WV-1)",
        "group": "resource",
        "lat": -2.219761789157356,
        "lon": -63.055118873794584,
        "alt_km": 499.3868962819997,
        "timestamp": "2025-12-25T22:42:16.652981+00:00",
        "meta_object_name": "WORLDVIEW-1 (WV-1)",
        "meta_object_id": "2007-041A",
        "meta_epoch": "2025-12-25T07:43:31.060992",
        "meta_mean_motion": 15.23960036,
        "meta_eccentricity": 0.0003142,
        "meta_inclination": 97.3822,
        "meta_ra_of_asc_node": 116.6184,
        "meta_arg_of_pericenter": 354.2284,
        "meta_mean_anomaly": 5.8916,
        "meta_ephemeris_type": 0,
        "meta_classification_type": "U",
        "meta_norad_cat_id": 32060,
        "meta_element_set_no": 999,
        "meta_rev_at_epoch": 1639,
        "meta_bstar": 0.00035011,
        "meta_mean_motion_dot": 8.403e-05,
        "meta_mean_motion_ddot": 0,
        "tle_line1": "1 32060U 07041A   25359.32188728  .00008403  00000+0  35011-3 0  9993",
        "tle_line2": "2 32060  97.3822 116.6184 0003142 354.2284   5.8916 15.23960036 16392"
      },
      "geometry": {
        "type": "Point",
        "coordinates": [
          -63.055118873794584,
          -2.219761789157356
        ]
      }
    },
    {
      "type": "Feature",
      "properties": {
        "norad_id": 32289,
        "name": "YAOGAN-3",
        "group": "resource",
        "lat": 1.3516995533044458,
        "lon": -153.3629478189486,
        "alt_km": 601.1209815695529,
        "timestamp": "2025-12-25T22:42:16.652992+00:00",
        "meta_object_name": "YAOGAN-3",
        "meta_object_id": "2007-055A",
        "meta_epoch": "2025-12-25T18:40:56.674272",
        "meta_mean_motion": 14.89918796,
        "meta_eccentricity": 0.0001277,
        "meta_inclination": 97.8356,
        "meta_ra_of_asc_node": 26.2848,
        "meta_arg_of_pericenter": 84.2597,
        "meta_mean_anomaly": 275.8766,
        "meta_ephemeris_type": 0,
        "meta_classification_type": "U",
        "meta_norad_cat_id": 32289,
        "meta_element_set_no": 999,
        "meta_rev_at_epoch": 98003,
        "meta_bstar": 0.0001387,
        "meta_mean_motion_dot": 1.279e-05,
        "meta_mean_motion_ddot": 0,
        "tle_line1": "1 32289U 07055A   25359.77843373  .00001279  00000+0  13870-3 0  9997",
        "tle_line2": "2 32289  97.8356  26.2848 0001277  84.2597 275.8766 14.89918796980039"
      },
      "geometry": {
        "type": "Point",
        "coordinates": [
          -153.3629478189486,
          1.3516995533044458
        ]
      }
    }
  ]
}